{"spkid": "50757317", "covariance": {"data": [["2.97695807496769E-15", "-6.937758897641392E-16", "9.750926723756925E-14", "-1.299831374478296E-13", "2.257775404574368E-13", "3.70075334914353E-14"], ["-6.937758897641392E-16", "6.614432779638069E-16", "-1.181736299145006E-13", "1.365498097054716E-13", "-2.493643716539977E-13", "-1.943931160586461E-14"], ["9.750926723756925E-14", "-1.181736299145006E-13", "1.352050681493728E-10", "-8.085094034279341E-11", "1.760475028374629E-10", "8.921917835111116E-12"], ["-1.299831374478296E-13", "1.365498097054716E-13", "-8.085094034279341E-11", "4.12663372344999E-10", "-4.614228385854695E-10", "-2.354872462786284E-11"], ["2.257775404574368E-13", "-2.493643716539977E-13", "1.760475028374629E-10", "-4.614228385854695E-10", "5.836424328631094E-10", "2.945998586023157E-11"], ["3.70075334914353E-14", "-1.943931160586461E-14", "8.921917835111116E-12", "-2.354872462786284E-11", "2.945998586023157E-11", "1.461524359015058E-11"]], "elements": [{"label": "e", "value": ".4285537611974811", "title": "eccentricity", "units": null, "name": "e", "sigma": 5.45615072644414e-08}, {"label": "q", "name": "q", "sigma": 2.57185395768074e-08, "units": "au", "value": ".9472466333362652", "title": "perihelion distance"}, {"label": "tp", "units": "TDB", "title": "time of perihelion passage", "value": "2457694.108015661780", "sigma": 1.16277714180049e-05, "name": "tp"}, {"title": "longitude of the ascending node", "value": "176.8524360567584", "units": "deg", "name": "om", "sigma": 2.03141175625475e-05, "label": "node"}, {"label": "peri", "sigma": 2.4158692697725e-05, "name": "w", "title": "argument of perihelion", "value": "225.3026507106907", "units": "deg"}, {"label": "i", "units": "deg", "title": "inclination", "value": "4.703913894232418", "sigma": 3.82298882945668e-06, "name": "i"}], "labels": ["e", "q", "tp", "node", "peri", "i"], "epoch": "2457693.5"}, "elements": [{"label": "e", "units": null, "value": ".4281981809918361", "title": "eccentricity", "sigma": "5.462E-8", "name": "e"}, {"units": "au", "title": "semi-major axis", "value": "1.656796286513575", "sigma": "1.4012E-7", "name": "a", "label": "a"}, {"units": "au", "title": "perihelion distance", "value": ".9473591303544331", "name": "q", "sigma": "2.5992E-8", "label": "q"}, {"label": "i", "sigma": "3.8208E-6", "name": "i", "value": "4.701590558378303", "title": "inclination; angle with respect to x-y ecliptic plane", "units": "deg"}, {"sigma": "2.036E-5", "name": "om", "title": "longitude of the ascending node", "value": "176.7402386394851", "units": "deg", "label": "node"}, {"sigma": "2.4214E-5", "name": "w", "units": "deg", "value": "225.4692408750213", "title": "argument of perihelion", "label": "peri"}, {"label": "M", "units": "deg", "title": "mean anomaly", "value": "180.2981320765997", "name": "ma", "sigma": ".0002069"}, {"label": "tp", "sigma": ".00049699", "name": "tp", "title": "time of perihelion passage", "value": "2461589.323214394705", "units": "TDB"}, {"label": "period", "sigma": "9.8818E-5", "name": "per", "units": "d", "value": "778.9365731120835", "title": "sidereal orbital period"}, {"title": "mean motion", "value": ".4621685672835888", "units": "deg/d", "name": "n", "sigma": "5.8632E-8", "label": "n"}, {"label": "Q", "sigma": "2.0013E-7", "name": "ad", "title": "aphelion distance", "value": "2.366233442672716", "units": "au"}], "epoch": "2461200.5"}